0 SL-12 DEB
1 39802U 08046P   15321.25374106  .00001165  00000-0  24049-2 0  9994
2 39802  65.2940 310.9482 5669897  66.9584 341.8804  4.34692303 23215
0 SL-12 DEB
1 39802U 08046P   15323.09413407  .00001304  00000-0  26920-2 0  9991
2 39802  65.2921 310.2589 5669975  66.8497 341.9201  4.34697311 23298
0 SL-12 DEB
1 39802U 08046P   15324.24437163  .00001106  00000-0  22788-2 0  9992
2 39802  65.2914 309.8278 5670077  66.7833 341.9461  4.34699445 23341
0 SL-12 DEB
1 39802U 08046P   15325.16455656 +.00001055 +00000-0 +21657-2 0  9998
2 39802 065.2908 309.4819 5670207 066.7288 341.9679 04.34701600023225
0 SL-12 DEB
1 39802U 08046P   15326.08473764  .00001006  00000-0  20551-2 0  9998
2 39802  65.2907 309.1349 5670425  66.6717 341.9910  4.34703661 23426
0 SL-12 DEB
1 39802U 08046P   15327.23495796  .00001132  00000-0  23015-2 0  9993
2 39802  65.2902 308.7036 5670593  66.6046 342.0166  4.34706137 23471
0 SL-12 DEB
1 39802U 08046P   15329.07529223  .00000858  00000-0  17501-2 0  9997
2 39802  65.2876 308.0114 5670332  66.5055 342.0479  4.34709269 23556
0 SL-12 DEB
1 39802U 08046P   15330.22549536  .00000989  00000-0  20148-2 0  9991
2 39802  65.2871 307.5769 5670765  66.4237 342.0771  4.34711962 23606
0 SL-12 DEB
1 39802U 08046P   15330.91561196 +.00000866 +00000-0 +17690-2 0  9995
2 39802 065.2880 307.3216 5670801 066.3998 342.0836 04.34713048023479
0 SL-12 DEB
1 39802U 08046P   15330.91561196  .00000866  00000-0  17690-2 0  9995
2 39802  65.2880 307.3216 5670801  66.3998 342.0836  4.34713048 23637
0 SL-12 DEB
1 39802U 08046P   15331.83576496 +.00000951 +00000-0 +19486-2 0  9996
2 39802 065.2868 306.9778 5670968 066.3496 342.1000 04.34715215023517
0 SL-12 DEB
1 39802U 08046P   15332.06580278  .00000914  00000-0  18755-2 0  9992
2 39802  65.2864 306.8921 5670953  66.3354 342.1044  4.34715581 23681
0 SL-12 DEB
1 39802U 08046P   15333.21598946  .00001045  00000-0  21486-2 0  9992
2 39802  65.2849 306.4572 5671105  66.2537 342.1326  4.34718240 23738
0 SL-12 DEB
1 39802U 08046P   15334.13613323 +.00001016 +00000-0 +20960-2 0  9995
2 39802 065.2847 306.1123 5671168 066.2059 342.1492 04.34720185023615
0 SL-12 DEB
1 39802U 08046P   15338.04670092  .00000747  00000-0  15416-2 0  9995
2 39802  65.2806 304.6449 5671245  65.9761 342.2363  4.34728198 23942
0 SL-12 DEB
1 39802U 08046P   15339.19685489  .00000806  00000-0  16436-2 0  9997
2 39802  65.2797 304.2118 5671352  65.9038 342.2648  4.34730716 23996
0 SL-12 DEB
1 39802U 08046P   15339.88694562 +.00001056 +00000-0 +21355-2 0  9999
2 39802 065.2788 303.9526 5671397 065.8544 342.2836 04.34732410023863
0 SL-12 DEB
1 39802U 08046P   15341.03708801  .00001360  00000-0  27282-2 0  9994
2 39802  65.2778 303.5229 5671406  65.7894 342.3075  4.34735576 24072
0 SL-12 DEB
1 39802U 08046P   15341.95719787 +.00001439 +00000-0 +28532-2 0  9996
2 39802 065.2773 303.1736 5671949 065.7253 342.3337 04.34737997023953
0 SL-12 DEB
1 39802U 08046P   15341.95719787  .00001439  00000-0  28532-2 0  9996
2 39802  65.2773 303.1736 5671949  65.7253 342.3337  4.34737997 24112
0 SL-12 DEB
1 39802U 08046P   15343.79740033  .00001180  00000-0  22989-2 0  9991
2 39802  65.2777 302.4819 5672578  65.6263 342.3704  4.34741783 24193
0 SL-12 DEB
1 39802U 08046P   15344.94751549 +.00001168 +00000-0 +22653-2 0  9997
2 39802 065.2770 302.0504 5672650 065.5617 342.3913 04.34744399024082
0 SL-12 DEB
1 39802U 08046P   15344.94751549  .00001168  00000-0  22653-2 0  9997
2 39802  65.2770 302.0504 5672650  65.5617 342.3913  4.34744399 24240
0 SL-12 DEB
1 39802U 08046P   15346.09762422  .00001415  00000-0  27464-2 0  9997
2 39802  65.2751 301.6168 5672706  65.4862 342.4159  4.34747808 24299
0 SL-12 DEB
1 39802U 08046P   15346.78768461 +.00001429 +00000-0 +27670-2 0  9996
2 39802 065.2744 301.3594 5672856 065.4473 342.4291 04.34749944024161
0 SL-12 DEB
1 39802U 08046P   15347.01770626  .00001214  00000-0  23424-2 0  9994
2 39802  65.2742 301.2767 5672899  65.4157 342.4403  4.34750071 24333
0 SL-12 DEB
1 39802U 08046P   15347.93778029 +.00001147 +00000-0 +22081-2 0  9993
2 39802 065.2744 300.9323 5672966 065.3780 342.4526 04.34752294024217
0 SL-12 DEB
1 39802U 08046P   15348.16779785  .00001159  00000-0  22304-2 0  9990
2 39802  65.2735 300.8438 5672954  65.3697 342.4552  4.34752873 24387
0 SL-12 DEB
1 39802U 08046P   15350.00792969  .00001733  00000-0  33486-2 0  9996
2 39802  65.2717 300.1536 5673037  65.2621 342.4935  4.34759626 24465
0 SL-12 DEB
1 39802U 08046P   15350.92798809 +.00001315 +00000-0 +25190-2 0  9995
2 39802 065.2699 299.8014 5673251 065.1927 342.5201 04.34761519024343
0 SL-12 DEB
1 39802U 08046P   15351.15800035  .00001287  00000-0  24597-2 0  9994
2 39802  65.2719 299.7183 5673315  65.1932 342.5204  4.34762464 24511
0 SL-12 DEB
1 39802U 08046P   15352.07805011 +.00001261 +00000-0 +24024-2 0  9992
2 39802 065.2708 299.3726 5673444 065.1379 342.5415 04.34765377024392
0 SL-12 DEB
1 39802U 08046P   15352.99809392  .00001294  00000-0  24604-2 0  9999
2 39802  65.2708 299.0277 5673534  65.0897 342.5593  4.34767800 24596
0 SL-12 DEB
1 39802U 08046P   15353.91813159 +.00001426 +00000-0 +27123-2 0  9994
2 39802 065.2698 298.6802 5673646 065.0355 342.5786 04.34770667024472
0 SL-12 DEB
1 39802U 08046P   15354.14813953  .00001443  00000-0  27430-2 0  9992
2 39802  65.2704 298.5947 5673696  65.0274 342.5815  4.34771459 24646
0 SL-12 DEB
1 39802U 08046P   15354.83816159 +.00001782 +00000-0 +33927-2 0  9993
2 39802 065.2689 298.3378 5673903 064.9835 342.5972 04.34774700024518
0 SL-12 DEB
1 39802U 08046P   15355.98818176  .00002170  00000-0  41433-2 0  9994
2 39802  65.2673 297.9070 5674009  64.9156 342.6189  4.34781181 24724
0 SL-12 DEB
1 39802U 08046P   15356.90818647 +.00001754 +00000-0 +33393-2 0  9993
2 39802 065.2670 297.5615 5674146 064.8716 342.6324 04.34785290024608
0 SL-12 DEB
1 39802U 08046P   15357.82818511  .00001457  00000-0  27739-2 0  9992
2 39802  65.2657 297.2142 5674227  64.8125 342.6510  4.34788395 24807
0 SL-12 DEB
1 39802U 08046P   15358.97817433  .00001697  00000-0  32459-2 0  9992
2 39802  65.2650 296.7830 5674253  64.7455 342.6720  4.34792510 24854
0 SL-12 DEB
1 39802U 08046P   15359.89815852 +.00001813 +00000-0 +34732-2 0  9993
2 39802 065.2643 296.4374 5674319 064.6961 342.6884 04.34795844024731
0 SL-12 DEB
1 39802U 08046P   15360.12815337  .00001391  00000-0  26604-2 0  9999
2 39802  65.2644 296.3508 5674403  64.6895 342.6910  4.34796064 24904
0 SL-12 DEB
1 39802U 08046P   15362.88806857 +.00001417 +00000-0 +27109-2 0  9991
2 39802 065.2633 295.3136 5674571 064.5382 342.7472 04.34804312024869
0 SL-12 DEB
1 39802U 08046P   15362.88806857  .00001417  00000-0  27109-2 0  9991
2 39802  65.2633 295.3136 5674571  64.5382 342.7472  4.34804312 25028
0 SL-12 DEB
1 39802U 08046P   15364.49799987  .00001335  00000-0  25431-2 0  9990
2 39802  65.2624 294.7111 5674674  64.4433 342.7844  4.34808615 25094
0 SL-12 DEB
1 39802U 08046P   15364.95797572 +.00001146 +00000-0 +21781-2 0  9993
2 39802 065.2615 294.5373 5674655 064.4150 342.7952 04.34809658024959
0 SL-12 DEB
1 39802U 08046P   15365.87792558  .00001880  00000-0  35697-2 0  9990
2 39802  65.2606 294.1916 5674687  64.3615 342.8159  4.34813439 25153
0 SL-12 DEB
1 39802U 08046P   16001.79786209  .00002270  00000-0  42998-2 0  9991
2 39802  65.2602 293.8456 5674733  64.3080 342.8362  4.34818940 25194
0 SL-12 DEB
1 39802U 08046P   16002.94778386 +.00001272 +00000-0 +23718-2 0  9996
2 39802 065.2592 293.4124 5675271 064.2319 342.8671 04.34820336025085
0 SL-12 DEB
1 39802U 08046P   16002.94778386  .00001272  00000-0  23718-2 0  9996
2 39802  65.2592 293.4124 5675271  64.2319 342.8671  4.34820336 25243
0 SL-12 DEB
1 39802U 08046P   16003.86770927 +.00001628 +00000-0 +30340-2 0  9995
2 39802 065.2580 293.0662 5675314 064.1781 342.8863 04.34823827025121
0 SL-12 DEB
1 39802U 08046P   16004.78762833  .00001353  00000-0  25062-2 0  9994
2 39802  65.2579 292.7201 5675403  64.1242 342.9053  4.34826436 25328
0 SL-12 DEB
1 39802U 08046P   16006.85743011  .00001571  00000-0  29022-2 0  9993
2 39802  65.2552 291.9411 5675481  64.0041 342.9459  4.34831664 25414
0 SL-12 DEB
1 39802U 08046P   16007.77733017 +.00001705 +00000-0 +31463-2 0  9991
2 39802 065.2548 291.5952 5675552 063.9507 342.9643 04.34835544025291
0 SL-12 DEB
1 39802U 08046P   16009.84709062  .00001311  00000-0  23777-2 0  9996
2 39802  65.2582 290.8254 5676054  63.8416 343.0053  4.34840279 25548
0 SL-12 DEB
1 39802U 08046P   16015.82620258  .00001773  00000-0  32136-2 0  9991
2 39802  65.2521 288.5719 5676159  63.5015 343.1323  4.34863017 25804
0 SL-12 DEB
1 39802U 08046P   16017.66586665  .00001700  00000-0  30866-2 0  9996
2 39802  65.2405 287.8650 5676290  63.4149 343.1611  4.34868682 25885
0 SL-12 DEB
1 39802U 08046P   16017.89582472 +.00001696 +00000-0 +30771-2 0  9992
2 39802 065.2420 287.7839 5676371 063.3981 343.1670 04.34869109025737
0 SL-12 DEB
1 39802U 08046P   16020.88522200 +.00002092 +00000-0 +38310-2 0  9996
2 39802 065.2483 286.6770 5676514 063.2712 343.2077 04.34879974025865
0 SL-12 DEB
1 39802U 08046P   16020.88522200  .00002092  00000-0  38310-2 0  9996
2 39802  65.2483 286.6770 5676514  63.2712 343.2077  4.34879974 26024
0 SL-12 DEB
1 39802U 08046P   16022.72481379  .00002060  00000-0  37956-2 0  9992
2 39802  65.2295 285.9520 5676200  63.0403 343.2882  4.34888852 26105
0 SL-12 DEB
1 39802U 08046P   16024.79431482  .00001529  00000-0  27737-2 0  9996
2 39802  65.2433 285.1887 5677068  62.9708 343.3226  4.34895243 26190
0 SL-12 DEB
1 39802U 08046P   16027.32366448  .00001446  00000-0  26038-2 0  9998
2 39802  65.2453 284.2377 5677253  62.8423 343.3756  4.34902680 26300
0 SL-12 DEB
1 39802U 08046P   16030.31284372  .00001418  00000-0  25407-2 0  9994
2 39802  65.2375 283.1038 5677240  62.6770 343.4374  4.34910610 26437
0 SL-12 DEB
1 39802U 08046P   16030.77271681 +.00001104 +00000-0 +19616-2 0  9990
2 39802 065.2428 282.9454 5677439 062.6412 343.4513 04.34910448026296
